1 48274U 21035A   25249.91836503  .00031309  00000+0  39118-3 0  9993
2 48274  41.4638 245.2619 0005817 300.1377  59.8884 15.59150007248902
